OBJECT_NAME,OBJECT_ID,EPOCH,MEAN_MOTION,ECCENTRICITY,INCLINATION,RA_OF_ASC_NODE,ARG_OF_PERICENTER,MEAN_ANOMALY,EPHEMERIS_TYPE,CLASSIFICATION_TYPE,NORAD_CAT_ID,ELEMENT_SET_NO,REV_AT_EPOCH,BSTAR,MEAN_MOTION_DOT,MEAN_MOTION_DDOT
SL-14 R/B,1990-018B,2026-07-11T04:18:01.864800,14.82232474,.0017303,82.5221,107.6841,49.2913,310.9801,0,U,20511,999,94087,.25447E-4,.227E-5,0
HST,1990-037B,2026-07-11T07:53:14.582400,15.31034980,.0002064,28.4732,275.5444,68.2345,291.8470,0,U,20580,999,79227,.12587E-3,.4115E-4,0
SL-16 R/B,1990-046B,2026-07-10T23:35:47.919264,14.15022989,.001248,70.9983,38.9709,121.8130,238.4209,0,U,20625,999,86583,.52679E-4,.54E-6,0
COSMOS 2084,1990-055A,2026-07-11T11:50:50.615232,15.06215430,.0007606,62.7890,273.1236,314.5677,45.4802,0,U,20663,999,95496,.82564E-4,.1013E-4,0
SL-6 R/B(2),1990-055D,2026-07-10T23:37:10.361280,15.04076991,.0044462,62.7799,194.3925,8.4250,351.7585,0,U,20666,999,95673,.86525E-4,.1019E-4,0
SL-8 R/B,1990-078B,2026-07-08T21:52:07.419936,14.93408823,.03445479,82.9023,141.9992,324.9410,32.9553,0,U,20775,999,82736,.46254958E-3,.16326E-3,0
SL-8 R/B,1991-006B,2026-07-10T02:36:06.045120,13.77508472,.00236663,82.9416,78.9815,54.0951,103.6954,0,U,21088,999,78092,.38416804E-4,.54E-6,0
OKEAN-3,1991-039A,2026-07-11T12:47:50.849952,15.05422298,.0012161,82.5138,216.7702,268.5123,91.4711,0,U,21397,999,88366,.10197E-3,.1493E-4,0
COSMOS 2151,1991-042A,2026-07-11T11:12:55.412064,15.00507388,.001233,82.4978,324.2482,8.1782,351.9641,0,U,21422,999,88175,.649E-4,.846E-5,0
SL-14 R/B,1991-042B,2026-07-11T04:34:47.108928,14.81916705,.001662,82.4935,104.3868,190.0863,170.0021,0,U,21423,999,87136,.20414E-4,.185E-5,0
ERS-1,1991-050A,2026-07-11T11:49:01.658784,14.39531319,.003165,98.7795,213.7838,192.7910,167.2477,0,U,21574,999,83354,.60575E-4,.144E-5,0
ARIANE 40 R/B,1991-050F,2026-07-11T02:39:33.994368,14.42970486,.0004309,98.1864,239.5943,70.3015,289.8641,0,U,21610,999,83679,.50267E-4,.127E-5,0
INTERCOSMOS 25,1991-086A,2026-07-11T11:04:07.372416,12.12237435,.1484393,82.6014,235.1208,209.9846,140.7557,0,U,21819,999,51168,.14845E-3,.76E-5,0
SL-8 R/B,1992-008B,2026-07-11T11:55:57.056160,13.75982946,.0035472,82.9270,175.7126,146.6939,330.4955,0,U,21876,999,72644,.10001E-3,.113E-5,0
SL-8 R/B,1992-020B,2026-07-11T01:53:17.584800,13.75550288,.0028129,82.9288,62.1094,315.5421,207.8981,0,U,21938,999,71809,.12464E-4,.27E-6,0
USA 81,1992-023A,2026-07-11T02:17:55.303872,14.32404187,.0002157,85.0054,60.2059,66.3770,293.7649,0,U,21949,999,11245,.2914E-4,.99E-6,0
COSMOS 2219,1992-076A,2026-07-09T06:15:18.546912,14.14110057,.00178747,71.0616,123.9288,6.9103,353.2263,0,U,22219,999,73556,-.20471525E-4,-.86E-6,0
SL-16 R/B,1992-076B,2026-07-11T12:47:37.089024,14.16875778,.0015003,71.0007,287.4958,266.7337,181.5342,0,U,22220,999,73937,.13766E-3,.228E-5,0
COSMOS 2221,1992-080A,2026-07-10T11:22:09.230016,14.96595498,.00154312,82.5042,161.4535,134.6920,225.5562,0,U,22236,999,79915,.87475067E-4,.1025E-4,0
SL-16 R/B,1992-093B,2026-07-10T05:02:24.434592,14.15467002,.00025456,71.0224,107.0605,146.2385,213.8900,0,U,22285,999,73049,-.25133283E-4,-.97E-6,0
COSMOS 2228,1992-094A,2026-07-11T11:23:41.218368,14.97668630,.0016106,82.5190,118.7793,242.7656,117.1926,0,U,22286,999,79458,.88773E-4,.1068E-4,0
SL-16 R/B,1993-016B,2026-07-11T12:50:55.364064,14.15311506,.000898,71.0084,315.0672,144.6183,215.5537,0,U,22566,999,71969,.21426E-4,-.6E-7,0
COSMOS 2242,1993-024A,2026-07-11T10:41:21.066144,14.96977773,.0014445,82.5196,148.3340,246.5545,113.4159,0,U,22626,999,79890,.84931E-4,.1004E-4,0
SL-16 R/B,1993-059B,2026-07-11T04:55:01.524000,14.17250591,.0016437,70.9906,110.6555,14.5803,345.5791,0,U,22803,999,69703,-.96187E-4,-.243E-5,0
ARIANE 40 R/B,1993-061H,2026-07-11T03:45:11.618208,14.32917542,.0009444,98.4808,258.5143,279.2511,80.7605,0,U,22830,999,71178,.43912E-4,.77E-6,0
COSMOS 2278,1994-023A,2026-07-11T12:06:56.282112,14.14393522,.000983,71.0529,276.0477,211.2284,148.8256,0,U,23087,999,66231,-.52123E-4,-.147E-5,0
SL-16 R/B,1994-023B,2026-07-11T10:12:02.839104,14.15023863,.000148,70.9980,171.0292,142.1590,217.9637,0,U,23088,999,66359,-.6968E-5,-.61E-6,0
SL-16 R/B,1994-074B,2026-07-11T12:20:55.976064,14.79522386,.0006892,97.6986,218.2209,165.4781,2.0245,0,U,23343,999,70555,.3579E-4,.219E-5,0
SL-16 R/B,1994-077B,2026-07-11T03:30:46.554624,14.15575205,.0004071,70.9827,92.7578,306.6686,53.4062,0,U,23405,999,63370,-.11377E-3,-.271E-5,0
ARIANE 40+ R/B,1995-021B,2026-07-11T03:53:26.835360,14.39846184,.0007783,98.4402,261.8896,126.8815,262.7399,0,U,23561,999,63701,.49012E-4,.11E-5,0
SL-16 R/B,1995-058B,2026-07-11T12:18:11.797056,14.15508019,.0014613,71.0213,280.2869,287.5872,72.3654,0,U,23705,999,58537,-.32518E-5,-.54E-6,0
